HYPSO-2                 
1 60531U 24149BR  26068.64186663  .00003981  00000+0  33980-3 0  9993
2 60531  97.6894 146.3679 0001390  74.8032 285.3344 14.98259029 85149
KUIPER-00106            
1 65144U 25171N   26068.44322937  .00004265  00000+0  38674-3 0  9999
2 65144  51.8933 156.0933 0007931  97.4823 262.7049 14.97188469 32902
